{
    "CCSDS_OMM_VERS": "3.0",
    "COMMENT": "GENERATED VIA SPACE-TRACK.ORG API",
    "CREATION_DATE": "2025-05-23T14:56:28",
    "ORIGINATOR": "18 SPCS",
    "OBJECT_NAME": "NAVSTAR 71 (USA 256)",
    "OBJECT_ID": "2014-045A",
    "CENTER_NAME": "EARTH",
    "REF_FRAME": "TEME",
    "TIME_SYSTEM": "UTC",
    "MEAN_ELEMENT_THEORY": "SGP4",
    "EPOCH": "2025-05-23T03:55:39.184608",
    "MEAN_MOTION": "2.00559353",
    "ECCENTRICITY": "0.00285860",
    "INCLINATION": "55.1058",
    "RA_OF_ASC_NODE": "104.0241",
    "ARG_OF_PERICENTER": "116.4662",
    "MEAN_ANOMALY": "243.8024",
    "EPHEMERIS_TYPE": "0",
    "CLASSIFICATION_TYPE": "U",
    "NORAD_CAT_ID": "40105",
    "ELEMENT_SET_NO": "999",
    "REV_AT_EPOCH": "7914",
    "BSTAR": "0.00000000000000",
    "MEAN_MOTION_DOT": "0.00000040",
    "MEAN_MOTION_DDOT": "0.0000000000000",
    "SEMIMAJOR_AXIS": "26560.723",
    "PERIOD": "717.992",
    "APOAPSIS": "20258.515",
    "PERIAPSIS": "20106.662",
    "OBJECT_TYPE": "PAYLOAD",
    "RCS_SIZE": "LARGE",
    "COUNTRY_CODE": "US",
    "LAUNCH_DATE": "2014-08-02",
    "SITE": "AFETR",
    "DECAY_DATE": null,
    "FILE": "4737025",
    "GP_ID": "288177494",
    "TLE_LINE0": "0 NAVSTAR 71 (USA 256)",
    "TLE_LINE1": "1 40105U 14045A   25143.16364797  .00000040  00000-0  00000+0 0  9995",
    "TLE_LINE2": "2 40105  55.1058 104.0241 0028586 116.4662 243.8024  2.00559353 79149"
}